ORBCOMM FM05            
1 25117U 97084F   25280.20219290  .00002119  00000+0  62497-3 0  9999
2 25117  45.0136 190.0926 0002911  31.8751 328.2276 14.46337324456824
ORBCOMM FM06            
1 25118U 97084G   25280.28188293  .00002138  00000+0  62818-3 0  9994
2 25118  45.0129 189.3188 0002043  18.2805 135.9510 14.46492998457759
ORBCOMM FM07            
1 25119U 97084H   25280.19633401  .00002296  00000+0  67146-3 0  9995
2 25119  45.0123 190.4906 0003758  34.7891 325.3206 14.46507123457739
ORBCOMM FM03            
1 25158U 98007B   25280.17877335  .00001368  00000+0  52304-3 0  9997
2 25158 107.9631   5.6986 0042650  51.6920 308.8043 14.34775424440100
ORBCOMM FM04            
1 25159U 98007C   25280.21353219  .00001486  00000+0  56220-3 0  9995
2 25159 107.9622   9.0652 0038488  48.7605 311.6842 14.35018877440292
ORBCOMM FM17            
1 25413U 98046A   25280.26154246  .00001340  00000+0  51204-3 0  9991
2 25413  44.9936  88.5900 0002819  72.1420 287.9735 14.35324106419271
ORBCOMM FM18            
1 25414U 98046B   25280.28820501  .00001766  00000+0  61390-3 0  9997
2 25414  44.9939   2.8393 0004616 154.9224 205.1850 14.38876053420399
ORBCOMM FM19            
1 25415U 98046C   25280.32874466  .00001543  00000+0  54426-3 0  9997
2 25415  44.9950   4.8198 0003403 158.6414 250.8415 14.38692632420352
